{
  "type": "FeatureCollection",
  "features": [
    {
      "type": "Feature",
      "properties": {
        "norad_id": 66882,
        "name": "STARLINK-35912",
        "group": "last-30-days",
        "lat": 38.1331951028639,
        "lon": 94.52623061692381,
        "alt_km": 305.0305646835059,
        "timestamp": "2025-12-15T19:00:44.079019+00:00",
        "meta_object_name": "STARLINK-35912",
        "meta_object_id": "2025-283E",
        "meta_epoch": "2025-12-14T20:00:06.000192",
        "meta_mean_motion": 15.89450943,
        "meta_eccentricity": 7.973e-05,
        "meta_inclination": 53.1551,
        "meta_ra_of_asc_node": 63.3221,
        "meta_arg_of_pericenter": 62.7456,
        "meta_mean_anomaly": 262.751,
        "meta_ephemeris_type": 0,
        "meta_classification_type": "U",
        "meta_norad_cat_id": 66882,
        "meta_element_set_no": 999,
        "meta_rev_at_epoch": 276,
        "meta_bstar": -0.0044991965,
        "meta_mean_motion_dot": -0.01177302,
        "meta_mean_motion_ddot": 0,
        "tle_line1": "1 66882U 25283E   25348.83340278 -.01177302  00000+0 -44992-2 0  9999",
        "tle_line2": "2 66882  53.1551  63.3221 0000797  62.7456 262.7510 15.89450943  2768"
      },
      "geometry": {
        "type": "Point",
        "coordinates": [
          94.52623061692381,
          38.1331951028639
        ]
      }
    },
    {
      "type": "Feature",
      "properties": {
        "norad_id": 66883,
        "name": "STARLINK-35947",
        "group": "last-30-days",
        "lat": 39.75469604973062,
        "lon": 97.04967794817557,
        "alt_km": 304.9392599001385,
        "timestamp": "2025-12-15T19:00:44.079029+00:00",
        "meta_object_name": "STARLINK-35947",
        "meta_object_id": "2025-283F",
        "meta_epoch": "2025-12-14T20:00:06.000192",
        "meta_mean_motion": 15.89497706,
        "meta_eccentricity": 6.518e-05,
        "meta_inclination": 53.1551,
        "meta_ra_of_asc_node": 63.3171,
        "meta_arg_of_pericenter": 68.2381,
        "meta_mean_anomaly": 259.7614,
        "meta_ephemeris_type": 0,
        "meta_classification_type": "U",
        "meta_norad_cat_id": 66883,
        "meta_element_set_no": 999,
        "meta_rev_at_epoch": 281,
        "meta_bstar": -0.0046193807,
        "meta_mean_motion_dot": -0.01230837,
        "meta_mean_motion_ddot": 0,
        "tle_line1": "1 66883U 25283F   25348.83340278 -.01230837  00000+0 -46194-2 0  9999",
        "tle_line2": "2 66883  53.1551  63.3171 0000651  68.2381 259.7614 15.89497706  2815"
      },
      "geometry": {
        "type": "Point",
        "coordinates": [
          97.04967794817557,
          39.75469604973062
        ]
      }
    },
    {
      "type": "Feature",
      "properties": {
        "norad_id": 66884,
        "name": "STARLINK-36057",
        "group": "last-30-days",
        "lat": 42.76031842634285,
        "lon": 102.34895622140309,
        "alt_km": 304.5631775829015,
        "timestamp": "2025-12-15T19:00:44.079038+00:00",
        "meta_object_name": "STARLINK-36057",
        "meta_object_id": "2025-283G",
        "meta_epoch": "2025-12-14T20:00:06.000192",
        "meta_mean_motion": 15.89580806,
        "meta_eccentricity": 6.515e-05,
        "meta_inclination": 53.1551,
        "meta_ra_of_asc_node": 63.3063,
        "meta_arg_of_pericenter": 70.0258,
        "meta_mean_anomaly": 262.8949,
        "meta_ephemeris_type": 0,
        "meta_classification_type": "U",
        "meta_norad_cat_id": 66884,
        "meta_element_set_no": 999,
        "meta_rev_at_epoch": 276,
        "meta_bstar": -0.0048416622,
        "meta_mean_motion_dot": -0.0128808,
        "meta_mean_motion_ddot": 0,
        "tle_line1": "1 66884U 25283G   25348.83340278 -.01288080  00000+0 -48417-2 0  9993",
        "tle_line2": "2 66884  53.1551  63.3063 0000651  70.0258 262.8949 15.89580806  2764"
      },
      "geometry": {
        "type": "Point",
        "coordinates": [
          102.34895622140309,
          42.76031842634285
        ]
      }
    },
    {
      "type": "Feature",
      "properties": {
        "norad_id": 66885,
        "name": "STARLINK-35954",
        "group": "last-30-days",
        "lat": 41.28556835085303,
        "lon": 99.63404241552232,
        "alt_km": 304.77370002376847,
        "timestamp": "2025-12-15T19:00:44.079048+00:00",
        "meta_object_name": "STARLINK-35954",
        "meta_object_id": "2025-283H",
        "meta_epoch": "2025-12-14T20:00:06.000192",
        "meta_mean_motion": 15.89544464,
        "meta_eccentricity": 6.595e-05,
        "meta_inclination": 53.1549,
        "meta_ra_of_asc_node": 63.3115,
        "meta_arg_of_pericenter": 70.6632,
        "meta_mean_anomaly": 259.8024,
        "meta_ephemeris_type": 0,
        "meta_classification_type": "U",
        "meta_norad_cat_id": 66885,
        "meta_element_set_no": 999,
        "meta_rev_at_epoch": 276,
        "meta_bstar": -0.0047590592,
        "meta_mean_motion_dot": -0.01266527,
        "meta_mean_motion_ddot": 0,
        "tle_line1": "1 66885U 25283H   25348.83340278 -.01266527  00000+0 -47591-2 0  9998",
        "tle_line2": "2 66885  53.1549  63.3115 0000659  70.6632 259.8024 15.89544464  2760"
      },
      "geometry": {
        "type": "Point",
        "coordinates": [
          99.63404241552232,
          41.28556835085303
        ]
      }
    },
    {
      "type": "Feature",
      "properties": {
        "norad_id": 66886,
        "name": "STARLINK-35900",
        "group": "last-30-days",
        "lat": 44.482603227519405,
        "lon": 105.87118135841666,
        "alt_km": 304.30396906315764,
        "timestamp": "2025-12-15T19:00:44.079058+00:00",
        "meta_object_name": "STARLINK-35900",
        "meta_object_id": "2025-283J",
        "meta_epoch": "2025-12-14T20:00:06.000192",
        "meta_mean_motion": 15.89604891,
        "meta_eccentricity": 6.575e-05,
        "meta_inclination": 53.1548,
        "meta_ra_of_asc_node": 63.2999,
        "meta_arg_of_pericenter": 68.0396,
        "meta_mean_anomaly": 267.9339,
        "meta_ephemeris_type": 0,
        "meta_classification_type": "U",
        "meta_norad_cat_id": 66886,
        "meta_element_set_no": 999,
        "meta_rev_at_epoch": 276,
        "meta_bstar": -0.0049027948,
        "meta_mean_motion_dot": -0.01303858,
        "meta_mean_motion_ddot": 0,
        "tle_line1": "1 66886U 25283J   25348.83340278 -.01303858  00000+0 -49028-2 0  9995",
        "tle_line2": "2 66886  53.1548  63.2999 0000657  68.0396 267.9339 15.89604891  2765"
      },
      "geometry": {
        "type": "Point",
        "coordinates": [
          105.87118135841666,
          44.482603227519405
        ]
      }
    },
    {
      "type": "Feature",
      "properties": {
        "norad_id": 66887,
        "name": "STARLINK-35925",
        "group": "last-30-days",
        "lat": 45.762677387939306,
        "lon": 108.79960847539061,
        "alt_km": 304.0953786777418,
        "timestamp": "2025-12-15T19:00:44.079071+00:00",
        "meta_object_name": "STARLINK-35925",
        "meta_object_id": "2025-283K",
        "meta_epoch": "2025-12-14T20:00:06.000192",
        "meta_mean_motion": 15.89630918,
        "meta_eccentricity": 6.37e-05,
        "meta_inclination": 53.155,
        "meta_ra_of_asc_node": 63.2953,
        "meta_arg_of_pericenter": 67.8867,
        "meta_mean_anomaly": 270.4586,
        "meta_ephemeris_type": 0,
        "meta_classification_type": "U",
        "meta_norad_cat_id": 66887,
        "meta_element_set_no": 999,
        "meta_rev_at_epoch": 276,
        "meta_bstar": -0.0049320556,
        "meta_mean_motion_dot": -0.01312248,
        "meta_mean_motion_ddot": 0,
        "tle_line1": "1 66887U 25283K   25348.83340278 -.01312248  00000+0 -49321-2 0  9995",
        "tle_line2": "2 66887  53.1550  63.2953 0000637  67.8867 270.4586 15.89630918  2769"
      },
      "geometry": {
        "type": "Point",
        "coordinates": [
          108.79960847539061,
          45.762677387939306
        ]
      }
    },
    {
      "type": "Feature",
      "properties": {
        "norad_id": 66888,
        "name": "STARLINK-35919",
        "group": "last-30-days",
        "lat": 46.95182748656522,
        "lon": 111.82782783591243,
        "alt_km": 303.92534745169087,
        "timestamp": "2025-12-15T19:00:44.079081+00:00",
        "meta_object_name": "STARLINK-35919",
        "meta_object_id": "2025-283L",
        "meta_epoch": "2025-12-14T20:00:06.000192",
        "meta_mean_motion": 15.89662102,
        "meta_eccentricity": 6.595e-05,
        "meta_inclination": 53.155,
        "meta_ra_of_asc_node": 63.2901,
        "meta_arg_of_pericenter": 74.3837,
        "meta_mean_anomaly": 266.3211,
        "meta_ephemeris_type": 0,
        "meta_classification_type": "U",
        "meta_norad_cat_id": 66888,
        "meta_element_set_no": 999,
        "meta_rev_at_epoch": 276,
        "meta_bstar": -0.0049929737,
        "meta_mean_motion_dot": -0.01328395,
        "meta_mean_motion_ddot": 0,
        "tle_line1": "1 66888U 25283L   25348.83340278 -.01328395  00000+0 -49930-2 0  9992",
        "tle_line2": "2 66888  53.1550  63.2901 0000659  74.3837 266.3211 15.89662102  2766"
      },
      "geometry": {
        "type": "Point",
        "coordinates": [
          111.82782783591243,
          46.95182748656522
        ]
      }
    }
  ]
}